<?xml version="1.0" encoding="utf-8"?>
<ndm xmlns:xsi="http://www.w3.org/2001/XMLSchema-instance" xsi:noNamespaceSchemaLocation="https://sanaregistry.org/r/ndmxml_unqualified/ndmxml-3.0.0-master-3.0.xsd"><omm id="CCSDS_OMM_VERS" version="3.0"><header><COMMENT>GENERATED VIA SPACE-TRACK.ORG API</COMMENT><CREATION_DATE>2024-04-08T06:36:16</CREATION_DATE><ORIGINATOR>18 SPCS</ORIGINATOR></header><body><segment><metadata><OBJECT_NAME>H2SAT</OBJECT_NAME><OBJECT_ID>2023-093A</OBJECT_ID><CENTER_NAME>EARTH</CENTER_NAME><REF_FRAME>TEME</REF_FRAME><TIME_SYSTEM>UTC</TIME_SYSTEM><MEAN_ELEMENT_THEORY>SGP4</MEAN_ELEMENT_THEORY></metadata><data><meanElements><EPOCH>2024-04-08T03:41:44.301408</EPOCH><MEAN_MOTION>1.00271289</MEAN_MOTION><ECCENTRICITY>0.00011870</ECCENTRICITY><INCLINATION>0.0021</INCLINATION><RA_OF_ASC_NODE>178.0762</RA_OF_ASC_NODE><ARG_OF_PERICENTER>345.1463</ARG_OF_PERICENTER><MEAN_ANOMALY>89.6024</MEAN_ANOMALY></meanElements><tleParameters><EPHEMERIS_TYPE>0</EPHEMERIS_TYPE><CLASSIFICATION_TYPE>U</CLASSIFICATION_TYPE><NORAD_CAT_ID>57213</NORAD_CAT_ID><ELEMENT_SET_NO>999</ELEMENT_SET_NO><REV_AT_EPOCH>285</REV_AT_EPOCH><BSTAR>0.00000000000000</BSTAR><MEAN_MOTION_DOT>-0.00000008</MEAN_MOTION_DOT><MEAN_MOTION_DDOT>0.0000000000000</MEAN_MOTION_DDOT></tleParameters><userDefinedParameters><USER_DEFINED parameter="SEMIMAJOR_AXIS">42164.871</USER_DEFINED><USER_DEFINED parameter="PERIOD">1436.104</USER_DEFINED><USER_DEFINED parameter="APOAPSIS">35791.741</USER_DEFINED><USER_DEFINED parameter="PERIAPSIS">35781.731</USER_DEFINED><USER_DEFINED parameter="OBJECT_TYPE">PAYLOAD</USER_DEFINED><USER_DEFINED parameter="RCS_SIZE">LARGE</USER_DEFINED><USER_DEFINED parameter="COUNTRY_CODE">GER</USER_DEFINED><USER_DEFINED parameter="LAUNCH_DATE">2023-07-05</USER_DEFINED><USER_DEFINED parameter="SITE">FRGUI</USER_DEFINED><USER_DEFINED parameter="DECAY_DATE"/><USER_DEFINED parameter="FILE">4268636</USER_DEFINED><USER_DEFINED parameter="GP_ID">254000037</USER_DEFINED></userDefinedParameters></data></segment></body></omm><omm id="CCSDS_OMM_VERS" version="3.0"><header><COMMENT>GENERATED VIA SPACE-TRACK.ORG API</COMMENT><CREATION_DATE>2024-04-08T06:56:16</CREATION_DATE><ORIGINATOR>18 SPCS</ORIGINATOR></header><body><segment><metadata><OBJECT_NAME>EUTE 115 WEST B(SATMEX 7</OBJECT_NAME><OBJECT_ID>2015-010B</OBJECT_ID><CENTER_NAME>EARTH</CENTER_NAME><REF_FRAME>TEME</REF_FRAME><TIME_SYSTEM>UTC</TIME_SYSTEM><MEAN_ELEMENT_THEORY>SGP4</MEAN_ELEMENT_THEORY></metadata><data><meanElements><EPOCH>2024-04-08T04:56:42.758880</EPOCH><MEAN_MOTION>1.00271973</MEAN_MOTION><ECCENTRICITY>0.00002180</ECCENTRICITY><INCLINATION>0.0240</INCLINATION><RA_OF_ASC_NODE>55.3000</RA_OF_ASC_NODE><ARG_OF_PERICENTER>8.0340</ARG_OF_PERICENTER><MEAN_ANOMALY>92.8937</MEAN_ANOMALY></meanElements><tleParameters><EPHEMERIS_TYPE>0</EPHEMERIS_TYPE><CLASSIFICATION_TYPE>U</CLASSIFICATION_TYPE><NORAD_CAT_ID>40425</NORAD_CAT_ID><ELEMENT_SET_NO>999</ELEMENT_SET_NO><REV_AT_EPOCH>3341</REV_AT_EPOCH><BSTAR>0.00000000000000</BSTAR><MEAN_MOTION_DOT>-0.00000034</MEAN_MOTION_DOT><MEAN_MOTION_DDOT>0.0000000000000</MEAN_MOTION_DDOT></tleParameters><userDefinedParameters><USER_DEFINED parameter="SEMIMAJOR_AXIS">42164.679</USER_DEFINED><USER_DEFINED parameter="PERIOD">1436.094</USER_DEFINED><USER_DEFINED parameter="APOAPSIS">35787.463</USER_DEFINED><USER_DEFINED parameter="PERIAPSIS">35785.625</USER_DEFINED><USER_DEFINED parameter="OBJECT_TYPE">PAYLOAD</USER_DEFINED><USER_DEFINED parameter="RCS_SIZE">LARGE</USER_DEFINED><USER_DEFINED parameter="COUNTRY_CODE">EUTE</USER_DEFINED><USER_DEFINED parameter="LAUNCH_DATE">2015-03-02</USER_DEFINED><USER_DEFINED parameter="SITE">AFETR</USER_DEFINED><USER_DEFINED parameter="DECAY_DATE"/><USER_DEFINED parameter="FILE">4268838</USER_DEFINED><USER_DEFINED parameter="GP_ID">254002953</USER_DEFINED></userDefinedParameters></data></segment></body></omm><omm id="CCSDS_OMM_VERS" version="3.0"><header><COMMENT>GENERATED VIA SPACE-TRACK.ORG API</COMMENT><CREATION_DATE>2024-04-08T07:06:17</CREATION_DATE><ORIGINATOR>18 SPCS</ORIGINATOR></header><body><segment><metadata><OBJECT_NAME>TIANLIAN 2-02</OBJECT_NAME><OBJECT_ID>2021-124A</OBJECT_ID><CENTER_NAME>EARTH</CENTER_NAME><REF_FRAME>TEME</REF_FRAME><TIME_SYSTEM>UTC</TIME_SYSTEM><MEAN_ELEMENT_THEORY>SGP4</MEAN_ELEMENT_THEORY></metadata><data><meanElements><EPOCH>2024-04-08T05:26:36.404736</EPOCH><MEAN_MOTION>1.00270969</MEAN_MOTION><ECCENTRICITY>0.00024170</ECCENTRICITY><INCLINATION>0.8537</INCLINATION><RA_OF_ASC_NODE>274.7212</RA_OF_ASC_NODE><ARG_OF_PERICENTER>76.9858</ARG_OF_PERICENTER><MEAN_ANOMALY>97.8578</MEAN_ANOMALY></meanElements><tleParameters><EPHEMERIS_TYPE>0</EPHEMERIS_TYPE><CLASSIFICATION_TYPE>U</CLASSIFICATION_TYPE><NORAD_CAT_ID>50005</NORAD_CAT_ID><ELEMENT_SET_NO>999</ELEMENT_SET_NO><REV_AT_EPOCH>858</REV_AT_EPOCH><BSTAR>0.00000000000000</BSTAR><MEAN_MOTION_DOT>-0.00000024</MEAN_MOTION_DOT><MEAN_MOTION_DDOT>0.0000000000000</MEAN_MOTION_DDOT></tleParameters><userDefinedParameters><USER_DEFINED parameter="SEMIMAJOR_AXIS">42164.961</USER_DEFINED><USER_DEFINED parameter="PERIOD">1436.109</USER_DEFINED><USER_DEFINED parameter="APOAPSIS">35797.017</USER_DEFINED><USER_DEFINED parameter="PERIAPSIS">35776.634</USER_DEFINED><USER_DEFINED parameter="OBJECT_TYPE">PAYLOAD</USER_DEFINED><USER_DEFINED parameter="RCS_SIZE">LARGE</USER_DEFINED><USER_DEFINED parameter="COUNTRY_CODE">PRC</USER_DEFINED><USER_DEFINED parameter="LAUNCH_DATE">2021-12-13</USER_DEFINED><USER_DEFINED parameter="SITE">XSC</USER_DEFINED><USER_DEFINED parameter="DECAY_DATE"/><USER_DEFINED parameter="FILE">4269022</USER_DEFINED><USER_DEFINED parameter="GP_ID">254007841</USER_DEFINED></userDefinedParameters></data></segment></body></omm></ndm>
