EUTELSAT 115 WEST B     
1 40425U 15010B   24099.20605045 -.00000034  00000+0  00000+0 0  9994
2 40425   0.0240  55.3000 0000218   8.0340  92.8937  1.00271973 33411
TIANLIAN 2-02           
1 50005U 21124A   24099.22681024 -.00000024  00000+0  00000+0 0  9994
2 50005   0.8537 274.7212 0002417  76.9858  97.8578  1.00270969  8586
H2SAT (HEINRICH HERTZ)  
1 57213U 23093A   24099.15398497 -.00000008  00000+0  00000+0 0  9992
2 57213   0.0021 178.0762 0001187 345.1463  89.6024  1.00271289  2851
